#dP2024 11 13  6  0  0.00000000      96 __u+U IGS20 EXT  IAC
## 2340 280800.00000000   900.00000000 60627 0.2500000000000
+   52   G02G03G04G05G06G07G08G09G10G11G12G13G14G15G16G17G18
+        G19G20G21G22G23G24G25G26G27G28G29G30G31G32R01R02R03
+        R04R05R07R08R09R11R12R14R15R16R17R18R19R20R21R22R24
+        R26  0  0  0  0  0  0  0  0  0  0  0  0  0  0  0  0
+          0  0  0  0  0  0  0  0  0  0  0  0  0  0  0  0  0
++         8 10  8  8  7  7  8  7  9  6  8  7  8  8  7  7  8
++         7  7  7  9  9  7  7  8  7  7  7  8  7  8  7  9  7
++         6  8  7  7  9  8  9  7  9  8  7  7  9  9  6  8  7
++         7  0  0  0  0  0  0  0  0  0  0  0  0  0  0  0  0
++         0  0  0  0  0  0  0  0  0  0  0  0  0  0  0  0  0
%c M  cc GPS ccc cccc cccc cccc cccc ccccc ccccc ccccc ccccc
%c cc cc ccc ccc cccc cccc cccc cccc ccccc ccccc ccccc ccccc
%f  0.0000000  0.000000000  0.00000000000  0.000000000000000
%f  0.0000000  0.000000000  0.00000000000  0.000000000000000
%i    0    0    0    0      0      0      0      0         0
%i    0    0    0    0      0      0      0      0         0
/* IAC                                ULTRA-RAPID PREDICTION
/* S/V CLOCKS ARE ALIGNED TO GNSS TIME                      
/* G:C1WC2W R:C1PC2P E:C1XC5X C:C2IC6I J:C1CC2S             
/* PCV:IGS20_2317 OL/AL:FES2004  NONE     YN ORB:CoN CLK:CoN
*  2024 11 13 13 30  0.00000000
PG02 -13766.742917  12849.236562  19057.186947   -315.493312
PG03 -22574.204689  12925.174179  -5231.127585    598.685066
PG04 -14254.697128   7257.457794 -21213.503166    478.765721
PG05  24240.843317  -3516.954917 -10528.782305   -192.870504
PG06   6174.322342  21514.994345 -14138.483645   -111.474045
PG07  -6571.148064  24971.478240  -4541.054569    -20.416953
PG08 -21926.919242  -2430.563095  14983.848113    412.407922
PG09  -4863.184838  15034.597786 -21431.680146    441.831030
PG10  -5732.004967 -13585.299821  22313.675504   -194.273476
PG11  13250.130549   8977.662757 -21167.553702   -749.874282
PG12  24765.635721  -9444.325032  -1538.413061   -551.794565
PG13  21425.122362  11995.193040  10190.208971    685.846606
PG14   1457.139049  15900.536378  21243.528756    538.886456
PG15  21782.830395   -543.724874  14766.880595    227.289693
PG16 -22857.573349  -2974.801093 -13928.741084   -129.466654
PG17   9624.086277  20820.899310  13638.641083    560.224063
PG18   5982.751068 -25563.293272  -3075.542401   -660.273605
PG19  17360.748014  20034.842740   3750.381827    562.264149
PG20  18086.066710   4180.596260 -18863.136075    368.776664
PG21 -15134.778756   5428.338445  21344.374090     97.558178
PG22   9380.390310  12891.781973  21598.525467    -79.078151
PG23   9222.901057 -17215.028213  17926.237157    362.373168
PG24  14313.259489 -11031.202221  18873.031444   -480.478307
PG25  15976.929595 -16988.589907 -12811.173019    499.033288
PG26 -14598.510701  -9483.783574 -20322.449369     27.570346
PG27 -23052.069465 -12136.273053   5935.710384    -34.721054
PG28  -6206.283834 -22817.031488 -12110.137171   -477.637146
PG29   6903.576364 -13791.683077 -21652.708114   -564.094892
PG30   1090.251891  25746.876171   5969.285894   -282.776638
PG31 -11950.036911 -13554.163449 -19583.676993   -221.832241
PG32 -13527.758693 -20073.212398  11388.477842   -574.290848
PR01  20210.514995  -2059.514538  15425.439202    104.293254
PR02   4876.488437  -9709.238136  23115.318296    -25.598401
PR03 -13446.851185 -12708.322260  17636.099572    111.318322
PR04 -23764.421431  -8877.076723   2807.719715    263.793402
PR05 -21611.246176   -346.046769 -13565.028157    140.646120
PR07  13776.033086  12652.831963 -17276.316624     94.904940
PR08  23899.706968   8495.821734  -2419.101438     -6.260660
PR09 -13354.380293  19729.614626   9016.725009    220.312364
PR11  12678.415510   2332.385915  22022.195396      7.024488
PR12  20021.828935 -13086.687365   8864.300174     47.193566
PR14     65.870834 -14299.671704 -21119.066354     27.235383
PR15 -13893.600443  -1000.564975 -21351.820225     74.166470
PR16 -19923.173699  13090.862274  -9021.804531     30.767729
PR17  -7335.811736 -24069.501078   4051.579608    139.500543
PR18 -11376.589089 -13852.954085  18190.949640    171.684286
PR19 -10375.599168   1250.507355  23276.599259   -298.294049
PR20  -2665.808163  21097.237937  14078.557345   -121.886702
PR21   6683.553512  24447.843037  -3022.852629   -150.957630
PR22  11494.904468  12882.957787 -18741.631197     -8.924411
PR24   1638.069436 -21568.436438 -13476.998051    -79.952373
PR26  23462.336662   9082.751039  -4237.617389   -133.544057
*  2024 11 13 13 45  0.00000000
PG02 -13850.994425  10674.799264  20358.185627   -315.485636
PG03 -23028.804362  12926.968735  -2360.097130    598.694454
PG04 -16095.978553   5753.073193 -20353.840673    478.771584
PG05  23150.060504  -2761.643427 -12962.661099   -192.871527
PG06   5853.627177  22980.527196 -11774.236947   -111.500239
PG07  -6813.094500  24195.425623  -7290.791880    -20.414814
PG08 -23151.904792  -3472.623562  12836.428407    412.417180
PG09  -6912.242461  13684.530301 -21777.889666    441.846342
PG10  -3452.284470 -14583.412906  22120.808815   -194.286434
PG11  12835.414559  11319.489924 -20289.206963   -749.875761
PG12  24838.017140  -9197.749903   1322.209545   -551.796793
PG13  22041.271731  12852.786936   7572.941355    685.848061
PG14   -773.955627  16768.045420  20580.188932    538.893758
PG15  23143.602054    417.900128  12634.907067    227.293808
PG16 -21359.178201  -3662.419568 -15999.461279   -129.457815
PG17   8250.085209  19936.558799  15776.252898    560.211030
PG18   6150.043709 -25019.913921  -5909.795951   -660.274012
PG19  16778.592116  19792.551128   6510.534290    562.268190
PG20  16305.907195   5561.948372 -20097.023171    368.776364
PG21 -15205.770017   3023.172824  21869.240581     97.557376
PG22   7117.197103  13726.721237  21979.056190    -79.080779
PG23  11029.824439 -17942.053629  16074.367948    362.380332
PG24  14470.128449  -8699.978955  19953.125884   -480.476360
PG25  17250.610837 -17317.674822 -10406.614577    499.033024
PG26 -12595.445685 -10684.669122 -21025.348570     27.558740
PG27 -23371.907834 -12635.200461   3170.383383    -34.721014
PG28  -5903.198137 -24041.646933  -9636.468196   -477.647801
PG29   8822.749642 -12217.657384 -21911.005806   -564.092263
PG30    703.236125  26227.023991   3215.878241   -282.769607
PG31 -11546.524105 -15648.829529 -18163.406957   -221.831639
PG32 -12276.571352 -19422.735731  13720.562482   -574.286139
PR01  21938.705200  -1771.187585  12893.426604    104.294493
PR02   7595.037531  -8969.652554  22669.621833    -25.598429
PR03 -11267.959228 -12016.568163  19543.182757    111.319056
PR04 -23294.470542  -8557.335971   5975.868226    263.794997
PR05 -23103.050948   -606.016667 -10823.984993    140.646693
PR07  11616.046038  11968.437840 -19240.544869     94.905685
PR08  23456.493198   8209.940568  -5593.822969     -6.260541
PR09 -13926.024088  20462.398914   6004.171185    220.314424
PR11  10722.240921   4280.600465  22755.552665      7.023822
PR12  19044.835166 -12269.970688  11730.048634     47.194037
PR14   1781.717857 -16141.921474 -19668.678604     27.235577
PR15 -11966.395519  -2889.189526 -22324.471602     74.166221
PR16 -18919.916014  12264.789354 -11888.269024     30.768030
PR17  -7587.841654 -24314.049316    836.350339    139.503694
PR18 -12015.805671 -15864.815242  16006.009154    171.686036
PR19 -10991.148711  -1538.603138  22973.983659   -298.295264
PR20  -2897.437228  19215.118824  16521.192239   -121.887072
PR21   6919.770937  24569.075452    204.525440   -150.960485
PR22  12061.760043  15003.958887 -16699.191671     -8.935127
PR24   1991.060218 -19778.466050 -15946.297978    -79.953658
PR26  22809.898785   8742.573966  -7354.581945   -133.543756
EOF
